{
  "norad_id": 63355,
  "name": "LEMUR-2-NEUROSPICY",
  "history": [
    {
      "epoch": "2026-03-28T22:29:15.226656",
      "apogee_km": 537.2630618692183,
      "perigee_km": 513.4997707765515,
      "latitude_deg": -35.07354000148473,
      "longitude_deg": -114.54974815994501,
      "semi_major_axis_km": 6903.518416322885,
      "eccentricity": 0.0017211,
      "inclination_deg": 97.5564,
      "raan_deg": 64.2069,
      "arg_perigee_deg": 170.5554,
      "mean_anomaly_deg": 189.6004,
      "mean_motion_rev_day": 15.13550899
    },
    {
      "epoch": "2026-03-29T04:50:03.415488",
      "apogee_km": 537.2625892952983,
      "perigee_km": 513.4717332547134,
      "latitude_deg": -52.39744398073714,
      "longitude_deg": -89.16287167998962,
      "semi_major_axis_km": 6903.504161275006,
      "eccentricity": 0.0017231,
      "inclination_deg": 97.5565,
      "raan_deg": 64.4692,
      "arg_perigee_deg": 169.6287,
      "mean_anomaly_deg": 190.5303,
      "mean_motion_rev_day": 15.13555587
    }
  ]
}